{
  "norad_id": 67541,
  "name": "STARLINK-36579",
  "history": [
    {
      "epoch": "2026-03-28T22:56:10.226688Z",
      "apogee_km": 345.58933706211155,
      "perigee_km": 342.01057782596854,
      "latitude_deg": 7.642612353687896e-05,
      "longitude_deg": 163.3857879377234,
      "height_km": 346.97848979415926,
      "semi_major_axis_km": 6721.93695744404,
      "eccentricity": 0.0002662,
      "inclination_deg": 97.2855,
      "raan_deg": 333.7971,
      "arg_perigee_deg": 90.466,
      "mean_anomaly_deg": 269.6911,
      "mean_motion_rev_day": 15.75292152
    },
    {
      "epoch": "2026-03-29T05:02:05.449056Z",
      "apogee_km": 344.9990909191665,
      "perigee_km": 342.75662676225784,
      "latitude_deg": 4.411441323029645e-05,
      "longitude_deg": 71.92223533946142,
      "height_km": 347.1456536040632,
      "semi_major_axis_km": 6722.014858840712,
      "eccentricity": 0.0001668,
      "inclination_deg": 97.2854,
      "raan_deg": 334.0641,
      "arg_perigee_deg": 95.222,
      "mean_anomaly_deg": 264.9236,
      "mean_motion_rev_day": 15.75264768
    }
  ]
}